{
  "type": "FeatureCollection",
  "features": [
    {
      "type": "Feature",
      "properties": {
        "norad_id": 45358,
        "name": "COSMOS 2545 (760)",
        "group": "gnss",
        "lat": -39.25321131645976,
        "lon": 161.685361643923,
        "alt_km": 19108.133166780706,
        "timestamp": "2025-12-19T18:58:41.832553+00:00",
        "meta_object_name": "COSMOS 2545 (760)",
        "meta_object_id": "2020-018A",
        "meta_epoch": "2025-12-19T00:41:16.420128",
        "meta_mean_motion": 2.13102611,
        "meta_eccentricity": 0.00115482,
        "meta_inclination": 64.4657,
        "meta_ra_of_asc_node": 318.7488,
        "meta_arg_of_pericenter": 249.6698,
        "meta_mean_anomaly": 110.1972,
        "meta_ephemeris_type": 0,
        "meta_classification_type": "U",
        "meta_norad_cat_id": 45358,
        "meta_element_set_no": 999,
        "meta_rev_at_epoch": 4482,
        "meta_bstar": 0,
        "meta_mean_motion_dot": -6.1e-07,
        "meta_mean_motion_ddot": 0,
        "tle_line1": "1 45358U 20018A   25353.02866227 -.00000061  00000+0  00000+0 0  9993",
        "tle_line2": "2 45358  64.4657 318.7488 0011548 249.6698 110.1972  2.13102611 44827"
      },
      "geometry": {
        "type": "Point",
        "coordinates": [
          161.685361643923,
          -39.25321131645976
        ]
      }
    },
    {
      "type": "Feature",
      "properties": {
        "norad_id": 45807,
        "name": "BEIDOU-3 G3 (C61)",
        "group": "gnss",
        "lat": 1.7111323892730712,
        "lon": 123.93308109051797,
        "alt_km": 35794.34949875571,
        "timestamp": "2025-12-19T18:58:41.832565+00:00",
        "meta_object_name": "BEIDOU-3 G3 (C61)",
        "meta_object_id": "2020-040A",
        "meta_epoch": "2025-12-19T01:48:17.629920",
        "meta_mean_motion": 1.00271158,
        "meta_eccentricity": 0.00064358,
        "meta_inclination": 2.006,
        "meta_ra_of_asc_node": 66.6361,
        "meta_arg_of_pericenter": 309.3807,
        "meta_mean_anomaly": 209.5662,
        "meta_ephemeris_type": 0,
        "meta_classification_type": "U",
        "meta_norad_cat_id": 45807,
        "meta_element_set_no": 999,
        "meta_rev_at_epoch": 2026,
        "meta_bstar": 0,
        "meta_mean_motion_dot": -3.31e-06,
        "meta_mean_motion_ddot": 0,
        "tle_line1": "1 45807U 20040A   25353.07520405 -.00000331  00000+0  00000+0 0  9997",
        "tle_line2": "2 45807   2.0060  66.6361 0006435 309.3807 209.5662  1.00271158 20265"
      },
      "geometry": {
        "type": "Point",
        "coordinates": [
          123.93308109051797,
          1.7111323892730712
        ]
      }
    },
    {
      "type": "Feature",
      "properties": {
        "norad_id": 45854,
        "name": "GPS BIII-3  (PRN 23)",
        "group": "gnss",
        "lat": 28.886196921886942,
        "lon": 57.306176577440596,
        "alt_km": 20336.68005940932,
        "timestamp": "2025-12-19T18:58:41.832576+00:00",
        "meta_object_name": "GPS BIII-3  (PRN 23)",
        "meta_object_id": "2020-041A",
        "meta_epoch": "2025-12-19T05:46:39.794304",
        "meta_mean_motion": 2.00561972,
        "meta_eccentricity": 0.00606096,
        "meta_inclination": 56.5512,
        "meta_ra_of_asc_node": 35.9326,
        "meta_arg_of_pericenter": 203.6529,
        "meta_mean_anomaly": 154.7876,
        "meta_ephemeris_type": 0,
        "meta_classification_type": "U",
        "meta_norad_cat_id": 45854,
        "meta_element_set_no": 999,
        "meta_rev_at_epoch": 4042,
        "meta_bstar": 0,
        "meta_mean_motion_dot": -6.4e-07,
        "meta_mean_motion_ddot": 0,
        "tle_line1": "1 45854U 20041A   25353.24073836 -.00000064  00000+0  00000+0 0  9993",
        "tle_line2": "2 45854  56.5512  35.9326 0060609 203.6529 154.7876  2.00561972 40428"
      },
      "geometry": {
        "type": "Point",
        "coordinates": [
          57.306176577440596,
          28.886196921886942
        ]
      }
    },
    {
      "type": "Feature",
      "properties": {
        "norad_id": 46114,
        "name": "GALAXY 30 (WAAS/PRN 135)",
        "group": "gnss",
        "lat": -0.0279306779916653,
        "lon": -111.69734084211885,
        "alt_km": 35777.82110645485,
        "timestamp": "2025-12-19T18:58:41.832656+00:00",
        "meta_object_name": "GALAXY 30 (WAAS/PRN 135)",
        "meta_object_id": "2020-056C",
        "meta_epoch": "2025-12-19T05:49:17.042304",
        "meta_mean_motion": 1.00272958,
        "meta_eccentricity": 0.00020248,
        "meta_inclination": 0.0074,
        "meta_ra_of_asc_node": 313.5866,
        "meta_arg_of_pericenter": 317.7165,
        "meta_mean_anomaly": 139.123,
        "meta_ephemeris_type": 0,
        "meta_classification_type": "U",
        "meta_norad_cat_id": 46114,
        "meta_element_set_no": 999,
        "meta_rev_at_epoch": 1948,
        "meta_bstar": 0,
        "meta_mean_motion_dot": 6.1e-07,
        "meta_mean_motion_ddot": 0,
        "tle_line1": "1 46114U 20056C   25353.24255836  .00000061  00000+0  00000+0 0  9997",
        "tle_line2": "2 46114   0.0074 313.5866 0002024 317.7165 139.1230  1.00272958 19484"
      },
      "geometry": {
        "type": "Point",
        "coordinates": [
          -111.69734084211885,
          -0.0279306779916653
        ]
      }
    },
    {
      "type": "Feature",
      "properties": {
        "norad_id": 46805,
        "name": "COSMOS 2547 (705K)",
        "group": "gnss",
        "lat": 62.878774680734885,
        "lon": -93.3713745590288,
        "alt_km": 19136.62587267006,
        "timestamp": "2025-12-19T18:58:41.832671+00:00",
        "meta_object_name": "COSMOS 2547 (705K)",
        "meta_object_id": "2020-075A",
        "meta_epoch": "2025-12-17T08:09:16.456320",
        "meta_mean_motion": 2.1310013,
        "meta_eccentricity": 0.0006169,
        "meta_inclination": 64.5962,
        "meta_ra_of_asc_node": 198.5429,
        "meta_arg_of_pericenter": 228.3795,
        "meta_mean_anomaly": 131.6499,
        "meta_ephemeris_type": 0,
        "meta_classification_type": "U",
        "meta_norad_cat_id": 46805,
        "meta_element_set_no": 999,
        "meta_rev_at_epoch": 4003,
        "meta_bstar": 0,
        "meta_mean_motion_dot": 1.12e-06,
        "meta_mean_motion_ddot": 0,
        "tle_line1": "1 46805U 20075A   25351.33977380  .00000112  00000+0  00000+0 0  9995",
        "tle_line2": "2 46805  64.5962 198.5429 0006169 228.3795 131.6499  2.13100130 40034"
      },
      "geometry": {
        "type": "Point",
        "coordinates": [
          -93.3713745590288,
          62.878774680734885
        ]
      }
    },
    {
      "type": "Feature",
      "properties": {
        "norad_id": 46826,
        "name": "GPS BIII-4  (PRN 14)",
        "group": "gnss",
        "lat": 5.552686763570643,
        "lon": -137.88200326992384,
        "alt_km": 20346.4474339919,
        "timestamp": "2025-12-19T18:58:41.832683+00:00",
        "meta_object_name": "GPS BIII-4  (PRN 14)",
        "meta_object_id": "2020-078A",
        "meta_epoch": "2025-12-16T01:06:13.902336",
        "meta_mean_motion": 2.00566891,
        "meta_eccentricity": 0.00647554,
        "meta_inclination": 54.0145,
        "meta_ra_of_asc_node": 218.2068,
        "meta_arg_of_pericenter": 203.3828,
        "meta_mean_anomaly": 339.3936,
        "meta_ephemeris_type": 0,
        "meta_classification_type": "U",
        "meta_norad_cat_id": 46826,
        "meta_element_set_no": 999,
        "meta_rev_at_epoch": 3783,
        "meta_bstar": 0,
        "meta_mean_motion_dot": 6.7e-07,
        "meta_mean_motion_ddot": 0,
        "tle_line1": "1 46826U 20078A   25350.04599424  .00000067  00000+0  00000+0 0  9996",
        "tle_line2": "2 46826  54.0145 218.2068 0064755 203.3828 339.3936  2.00566891 37831"
      },
      "geometry": {
        "type": "Point",
        "coordinates": [
          -137.88200326992384,
          5.552686763570643
        ]
      }
    },
    {
      "type": "Feature",
      "properties": {
        "norad_id": 48859,
        "name": "GPS BIII-5  (PRN 11)",
        "group": "gnss",
        "lat": -9.47963239426449,
        "lon": 166.31430353225562,
        "alt_km": 20136.013288396436,
        "timestamp": "2025-12-19T18:58:41.832694+00:00",
        "meta_object_name": "GPS BIII-5  (PRN 11)",
        "meta_object_id": "2021-054A",
        "meta_epoch": "2025-12-08T04:14:32.423424",
        "meta_mean_motion": 2.00553627,
        "meta_eccentricity": 0.0024678,
        "meta_inclination": 55.2581,
        "meta_ra_of_asc_node": 340.1367,
        "meta_arg_of_pericenter": 233.3994,
        "meta_mean_anomaly": 212.8593,
        "meta_ephemeris_type": 0,
        "meta_classification_type": "U",
        "meta_norad_cat_id": 48859,
        "meta_element_set_no": 999,
        "meta_rev_at_epoch": 3292,
        "meta_bstar": 0,
        "meta_mean_motion_dot": -8.6e-07,
        "meta_mean_motion_ddot": 0,
        "tle_line1": "1 48859U 21054A   25342.17676416 -.00000086  00000+0  00000+0 0  9993",
        "tle_line2": "2 48859  55.2581 340.1367 0024678 233.3994 212.8593  2.00553627 32922"
      },
      "geometry": {
        "type": "Point",
        "coordinates": [
          166.31430353225562,
          -9.47963239426449
        ]
      }
    }
  ]
}